[{"OBJECT_NAME":"STARLINK-4470","OBJECT_ID":"2022-105H","EPOCH":"2026-03-09T16:19:57.988128","MEAN_MOTION":15.05645183,"ECCENTRICITY":0.00026506,"INCLINATION":97.6009,"RA_OF_ASC_NODE":311.1586,"ARG_OF_PERICENTER":84.6866,"MEAN_ANOMALY":275.4663,"EPHEMERIS_TYPE":0,"CLASSIFICATION_TYPE":"U","NORAD_CAT_ID":53655,"ELEMENT_SET_NO":999,"REV_AT_EPOCH":19329,"BSTAR":-2.7041053e-5,"MEAN_MOTION_DOT":-4.51e-6,"MEAN_MOTION_DDOT":0},{"OBJECT_NAME":"CZ-4C R\/B","OBJECT_ID":"2022-039B","EPOCH":"2026-03-09T15:51:32.485824","MEAN_MOTION":15.03008334,"ECCENTRICITY":0.0113659,"INCLINATION":98.2525,"RA_OF_ASC_NODE":105.9247,"ARG_OF_PERICENTER":45.8852,"MEAN_ANOMALY":315.1654,"EPHEMERIS_TYPE":0,"CLASSIFICATION_TYPE":"U","NORAD_CAT_ID":52258,"ELEMENT_SET_NO":999,"REV_AT_EPOCH":21291,"BSTAR":0.00022979194,"MEAN_MOTION_DOT":3.483e-5,"MEAN_MOTION_DDOT":0}]
